TIANQI-15               
1 49027U 21065B   26068.81163741  .00006722  00000+0  41179-3 0  9990
2 49027  34.9979 108.2420 0007067 250.7766 109.2180 15.09508085254244
STARLINK-4483           
1 53532U 22101F   26068.33795144  .00000269  00000+0  35007-4 0  9997
2 53532  53.2171  75.6967 0001435  83.3341 276.7815 15.08833727196112
